start=new Date('2022-07-17T00:00:00.000Z').valueOf();
sats=[{"TLE_LINE2":"2 45773  53.0557  55.3975 0001496  80.2362 279.8796 15.06402515116025","MEAN_ELEMENT_THEORY":"SGP4","TIME_SYSTEM":"UTC","LAUNCH_DATE":"2020-06-13","COUNTRY_CODE":"US","ECCENTRICITY":"0.00014960","RA_OF_ASC_NODE":"55.3975","ARG_OF_PERICENTER":"80.2362","DECAY_DATE":null,"TLE_LINE1":"1 45773U 20038AV  22197.87094888  .00002441  00000-0  18272-3 0  9996","NORAD_CAT_ID":"45773","ELEMENT_SET_NO":"999","MEAN_MOTION_DDOT":"0.0000000000000","FILE":"3515618","EPOCH":"2022-07-16T20:54:09.983232","SEMIMAJOR_AXIS":"6925.341","GP_ID":"208268115","MEAN_ANOMALY":"279.8796","MEAN_MOTION_DOT":"0.00002441","RCS_SIZE":"LARGE","REV_AT_EPOCH":"11602","OBJECT_NAME":"STARLINK-1482","PERIAPSIS":"546.170","PERIOD":"95.592","OBJECT_ID":"2020-038AV","CLASSIFICATION_TYPE":"U","MEAN_MOTION":"15.06402515","OBJECT_TYPE":"PAYLOAD","EPHEMERIS_TYPE":"0","BSTAR":"0.00018272000000","APOAPSIS":"548.242","REF_FRAME":"TEME","SITE":"AFETR","CENTER_NAME":"EARTH","INCLINATION":"53.0557"},{"TLE_LINE2":"2 45774  53.0538  55.2327 0001445  78.3934 281.7217 15.06412705116024","MEAN_ELEMENT_THEORY":"SGP4","TIME_SYSTEM":"UTC","LAUNCH_DATE":"2020-06-13","COUNTRY_CODE":"US","RA_OF_ASC_NODE":"55.2327","ECCENTRICITY":"0.00014450","ARG_OF_PERICENTER":"78.3934","DECAY_DATE":null,"TLE_LINE1":"1 45774U 20038AW  22197.90781162  .00004968  00000-0  35204-3 0  9999","NORAD_CAT_ID":"45774","ELEMENT_SET_NO":"999","MEAN_MOTION_DDOT":"0.0000000000000","FILE":"3515618","GP_ID":"208267866","EPOCH":"2022-07-16T21:47:14.923968","SEMIMAJOR_AXIS":"6925.310","MEAN_ANOMALY":"281.7217","MEAN_MOTION_DOT":"0.00004968","REV_AT_EPOCH":"11602","RCS_SIZE":"LARGE","PERIAPSIS":"546.174","OBJECT_NAME":"STARLINK-1485","CLASSIFICATION_TYPE":"U","MEAN_MOTION":"15.06412705","OBJECT_ID":"2020-038AW","PERIOD":"95.591","OBJECT_TYPE":"PAYLOAD","EPHEMERIS_TYPE":"0","BSTAR":"0.00035204000000","APOAPSIS":"548.175","REF_FRAME":"TEME","INCLINATION":"53.0538","CENTER_NAME":"EARTH","SITE":"AFETR"},{"GP_ID":"208269117","SEMIMAJOR_AXIS":"6925.331","EPOCH":"2022-07-16T21:52:32.579616","REV_AT_EPOCH":"11603","RCS_SIZE":"LARGE","MEAN_MOTION_DOT":"0.00001227","MEAN_ANOMALY":"281.8812","PERIAPSIS":"546.173","OBJECT_NAME":"STARLINK-1488","MEAN_MOTION":"15.06405743","CLASSIFICATION_TYPE":"U","OBJECT_ID":"2020-038AX","PERIOD":"95.592","OBJECT_TYPE":"PAYLOAD","APOAPSIS":"548.219","BSTAR":"0.00010125000000","EPHEMERIS_TYPE":"0","REF_FRAME":"TEME","CENTER_NAME":"EARTH","INCLINATION":"53.0551","SITE":"AFETR","MEAN_ELEMENT_THEORY":"SGP4","TLE_LINE2":"2 45775  53.0551  55.2116 0001477  78.2343 281.8812 15.06405743116031","LAUNCH_DATE":"2020-06-13","TIME_SYSTEM":"UTC","COUNTRY_CODE":"US","ARG_OF_PERICENTER":"78.2343","ECCENTRICITY":"0.00014770","RA_OF_ASC_NODE":"55.2116","TLE_LINE1":"1 45775U 20038AX  22197.91148819  .00001227  00000-0  10125-3 0  9997","DECAY_DATE":null,"NORAD_CAT_ID":"45775","ELEMENT_SET_NO":"999","FILE":"3515618","MEAN_MOTION_DDOT":"0.0000000000000"},{"MEAN_MOTION_DDOT":"0.0000000000000","FILE":"3515618","ELEMENT_SET_NO":"999","NORAD_CAT_ID":"45776","DECAY_DATE":null,"TLE_LINE1":"1 45776U 20038AY  22197.85251999  .00005024  00000-0  35582-3 0  9998","ECCENTRICITY":"0.00012250","RA_OF_ASC_NODE":"55.4708","ARG_OF_PERICENTER":"109.1248","COUNTRY_CODE":"US","TIME_SYSTEM":"UTC","LAUNCH_DATE":"2020-06-13","TLE_LINE2":"2 45776  53.0559  55.4708 0001225 109.1248 250.9874 15.06409176116026","MEAN_ELEMENT_THEORY":"SGP4","INCLINATION":"53.0559","CENTER_NAME":"EARTH","SITE":"AFETR","REF_FRAME":"TEME","EPHEMERIS_TYPE":"0","BSTAR":"0.00035582000000","APOAPSIS":"548.034","OBJECT_TYPE":"PAYLOAD","CLASSIFICATION_TYPE":"U","MEAN_MOTION":"15.06409176","OBJECT_ID":"2020-038AY","PERIOD":"95.592","PERIAPSIS":"546.337","OBJECT_NAME":"STARLINK-1489","MEAN_MOTION_DOT":"0.00005024","MEAN_ANOMALY":"250.9874","RCS_SIZE":"LARGE","REV_AT_EPOCH":"11602","GP_ID":"208268858","EPOCH":"2022-07-16T20:27:37.727136","SEMIMAJOR_AXIS":"6925.320"},{"ELEMENT_SET_NO":"999","FILE":"3515493","MEAN_MOTION_DDOT":"0.0000000000000","TLE_LINE1":"1 45777U 20038AZ  22197.84884458  .00000505  00000-0  52814-4 0  9997","DECAY_DATE":null,"NORAD_CAT_ID":"45777","COUNTRY_CODE":"US","ARG_OF_PERICENTER":"71.3199","ECCENTRICITY":"0.00014010","RA_OF_ASC_NODE":"55.5008","MEAN_ELEMENT_THEORY":"SGP4","TLE_LINE2":"2 45777  53.0539  55.5008 0001401  71.3199 288.7941 15.06386977117141","LAUNCH_DATE":"2020-06-13","TIME_SYSTEM":"UTC","REF_FRAME":"TEME","SITE":"AFETR","CENTER_NAME":"EARTH","INCLINATION":"53.0539","OBJECT_TYPE":"PAYLOAD","APOAPSIS":"548.224","EPHEMERIS_TYPE":"0","BSTAR":"0.00005281400000","OBJECT_NAME":"STARLINK-1490","PERIAPSIS":"546.283","PERIOD":"95.593","OBJECT_ID":"2020-038AZ","MEAN_MOTION":"15.06386977","CLASSIFICATION_TYPE":"U","SEMIMAJOR_AXIS":"6925.388","EPOCH":"2022-07-16T20:22:20.171712","GP_ID":"208246215","REV_AT_EPOCH":"11714","RCS_SIZE":"LARGE","MEAN_MOTION_DOT":"0.00000505","MEAN_ANOMALY":"288.7941"},{"ECCENTRICITY":"0.00016940","RA_OF_ASC_NODE":"55.2632","ARG_OF_PERICENTER":"93.1036","COUNTRY_CODE":"US","TIME_SYSTEM":"UTC","LAUNCH_DATE":"2020-06-13","TLE_LINE2":"2 45778  53.0559  55.2632 0001694  93.1036 267.0147 15.06403631116010","MEAN_ELEMENT_THEORY":"SGP4","MEAN_MOTION_DDOT":"0.0000000000000","FILE":"3515618","ELEMENT_SET_NO":"999","NORAD_CAT_ID":"45778","DECAY_DATE":null,"TLE_LINE1":"1 45778U 20038BA  22197.89675467  .00003203  00000-0  23381-3 0  9995","CLASSIFICATION_TYPE":"U","MEAN_MOTION":"15.06403631","OBJECT_ID":"2020-038BA","PERIOD":"95.592","PERIAPSIS":"546.029","OBJECT_NAME":"STARLINK-1491","MEAN_ANOMALY":"267.0147","MEAN_MOTION_DOT":"0.00003203","RCS_SIZE":"LARGE","REV_AT_EPOCH":"11601","GP_ID":"208268366","EPOCH":"2022-07-16T21:31:19.603488","SEMIMAJOR_AXIS":"6925.337","INCLINATION":"53.0559","CENTER_NAME":"EARTH","SITE":"AFETR","REF_FRAME":"TEME","BSTAR":"0.00023381000000","EPHEMERIS_TYPE":"0","APOAPSIS":"548.376","OBJECT_TYPE":"PAYLOAD"},{"APOAPSIS":"548.117","EPHEMERIS_TYPE":"0","BSTAR":"0.00034928000000","OBJECT_TYPE":"PAYLOAD","INCLINATION":"53.0554","CENTER_NAME":"EARTH","SITE":"AFETR","REF_FRAME":"TEME","REV_AT_EPOCH":"11601","RCS_SIZE":"LARGE","MEAN_MOTION_DOT":"0.00004927","MEAN_ANOMALY":"294.5498","GP_ID":"208268618","SEMIMAJOR_AXIS":"6925.304","EPOCH":"2022-07-16T21:26:00.393504","MEAN_MOTION":"15.06414654","CLASSIFICATION_TYPE":"U","OBJECT_ID":"2020-038BB","PERIOD":"95.591","PERIAPSIS":"546.221","OBJECT_NAME":"STARLINK-1492","NORAD_CAT_ID":"45779","TLE_LINE1":"1 45779U 20038BB  22197.89306011  .00004927  00000-0  34928-3 0  9995","DECAY_DATE":null,"FILE":"3515618","MEAN_MOTION_DDOT":"0.0000000000000","ELEMENT_SET_NO":"999","LAUNCH_DATE":"2020-06-13","TIME_SYSTEM":"UTC","MEAN_ELEMENT_THEORY":"SGP4","TLE_LINE2":"2 45779  53.0554  55.2835 0001369  65.5634 294.5498 15.06414654116018","ARG_OF_PERICENTER":"65.5634","ECCENTRICITY":"0.00013690","RA_OF_ASC_NODE":"55.2835","COUNTRY_CODE":"US"},{"REF_FRAME":"TEME","SITE":"AFETR","INCLINATION":"53.0535","CENTER_NAME":"EARTH","OBJECT_TYPE":"PAYLOAD","BSTAR":"0.00023717000000","EPHEMERIS_TYPE":"0","APOAPSIS":"548.188","OBJECT_NAME":"STARLINK-1496","PERIAPSIS":"546.235","PERIOD":"95.592","OBJECT_ID":"2020-038BC","CLASSIFICATION_TYPE":"U","MEAN_MOTION":"15.06400607","EPOCH":"2022-07-16T21:41:56.341248","SEMIMAJOR_AXIS":"6925.347","GP_ID":"208269358","MEAN_ANOMALY":"286.9385","MEAN_MOTION_DOT":"0.00003253","RCS_SIZE":"LARGE","REV_AT_EPOCH":"11601","ELEMENT_SET_NO":"999","MEAN_MOTION_DDOT":"0.0000000000000","FILE":"3515618","DECAY_DATE":null,"TLE_LINE1":"1 45780U 20038BC  22197.90412432  .00003253  00000-0  23717-3 0  9999","NORAD_CAT_ID":"45780","COUNTRY_CODE":"US","RA_OF_ASC_NODE":"55.2374","ECCENTRICITY":"0.00014100","ARG_OF_PERICENTER":"73.1759","TLE_LINE2":"2 45780  53.0535  55.2374 0001410  73.1759 286.9385 15.06400607116010","MEAN_ELEMENT_THEORY":"SGP4","TIME_SYSTEM":"UTC","LAUNCH_DATE":"2020-06-13"},{"SEMIMAJOR_AXIS":"6925.326","EPOCH":"2022-07-16T20:43:33.737952","GP_ID":"208268116","REV_AT_EPOCH":"11601","RCS_SIZE":"LARGE","MEAN_MOTION_DOT":"0.00006315","MEAN_ANOMALY":"288.4503","OBJECT_NAME":"STARLINK-1497","PERIAPSIS":"546.199","OBJECT_ID":"2020-038BD","PERIOD":"95.592","MEAN_MOTION":"15.06407345","CLASSIFICATION_TYPE":"U","OBJECT_TYPE":"PAYLOAD","APOAPSIS":"548.183","BSTAR":"0.00044239000000","EPHEMERIS_TYPE":"0","REF_FRAME":"TEME","SITE":"AFETR","INCLINATION":"53.0543","CENTER_NAME":"EARTH","MEAN_ELEMENT_THEORY":"SGP4","TLE_LINE2":"2 45781  53.0543  55.4248 0001432  71.6642 288.4503 15.06407345116015","LAUNCH_DATE":"2020-06-13","TIME_SYSTEM":"UTC","COUNTRY_CODE":"US","ARG_OF_PERICENTER":"71.6642","ECCENTRICITY":"0.00014320","RA_OF_ASC_NODE":"55.4248","TLE_LINE1":"1 45781U 20038BD  22197.86358493  .00006315  00000-0  44239-3 0  9995","DECAY_DATE":null,"NORAD_CAT_ID":"45781","ELEMENT_SET_NO":"999","FILE":"3515618","MEAN_MOTION_DDOT":"0.0000000000000"},{"LAUNCH_DATE":"2020-06-13","TIME_SYSTEM":"UTC","MEAN_ELEMENT_THEORY":"SGP4","TLE_LINE2":"2 45782  53.0531  55.4666 0001493  69.4891 290.6258 15.06498763116022","ARG_OF_PERICENTER":"69.4891","RA_OF_ASC_NODE":"55.4666","ECCENTRICITY":"0.00014930","COUNTRY_CODE":"US","NORAD_CAT_ID":"45782","TLE_LINE1":"1 45782U 20038BE  22197.85607533  .00014762  00000-0  10052-2 0  9997","DECAY_DATE":null,"FILE":"3515618","MEAN_MOTION_DDOT":"0.0000000000000","ELEMENT_SET_NO":"999","RCS_SIZE":"LARGE","REV_AT_EPOCH":"11602","MEAN_MOTION_DOT":"0.00014762","MEAN_ANOMALY":"290.6258","SEMIMAJOR_AXIS":"6925.046","EPOCH":"2022-07-16T20:32:44.908512","GP_ID":"208267867","OBJECT_ID":"2020-038BE","PERIOD":"95.586","MEAN_MOTION":"15.06498763","CLASSIFICATION_TYPE":"U","OBJECT_NAME":"STARLINK-1498","PERIAPSIS":"545.877","APOAPSIS":"547.945","BSTAR":"0.00100520000000","EPHEMERIS_TYPE":"0","OBJECT_TYPE":"PAYLOAD","SITE":"AFETR","CENTER_NAME":"EARTH","INCLINATION":"53.0531","REF_FRAME":"TEME"}];
